STARLINK-37243          
1 68608U 26073G   26106.93008027  .00162430  00000+0  83081-3 0  9998
2 68608  97.2851 304.5495 0001719  92.2401 267.9064 15.80874530  1576
