{
  "norad_id": 68608,
  "name": "STARLINK-37243",
  "history": [
    {
      "epoch": "2026-04-16T22:19:18.935328Z",
      "apogee_km": 329.1194927442757,
      "perigee_km": 326.81312969348164,
      "latitude_deg": -1.027907005854076e-05,
      "longitude_deg": 124.64987681819952,
      "height_km": 331.1845650974754,
      "semi_major_axis_km": 6706.103311218878,
      "eccentricity": 0.00017196,
      "inclination_deg": 97.2851,
      "raan_deg": 304.5495,
      "arg_perigee_deg": 92.2401,
      "mean_anomaly_deg": 267.9064,
      "mean_motion_rev_day": 15.8087453
    }
  ]
}